{
  "norad_id": 67177,
  "name": "STARLINK-35853",
  "history": [
    {
      "epoch": "2026-03-28T09:15:06.787872Z",
      "apogee_km": 483.9149067122471,
      "perigee_km": 482.0897064339124,
      "latitude_deg": 2.275191172908878e-05,
      "longitude_deg": -119.39155569994954,
      "height_km": 483.37715887554947,
      "semi_major_axis_km": 6861.139306573079,
      "eccentricity": 0.00013301,
      "inclination_deg": 43.0011,
      "raan_deg": 205.1934,
      "arg_perigee_deg": 229.022,
      "mean_anomaly_deg": 131.0517,
      "mean_motion_rev_day": 15.27595626
    },
    {
      "epoch": "2026-03-29T00:56:40.512192Z",
      "apogee_km": 484.38769250477344,
      "perigee_km": 481.57737794314653,
      "latitude_deg": 2.7302942486913973e-05,
      "longitude_deg": 0.8849545935901437,
      "height_km": 482.4270014187961,
      "semi_major_axis_km": 6861.11953522396,
      "eccentricity": 0.0002048,
      "inclination_deg": 43.0034,
      "raan_deg": 201.5049,
      "arg_perigee_deg": 283.7137,
      "mean_anomaly_deg": 76.3487,
      "mean_motion_rev_day": 15.27602229
    }
  ]
}